start=new Date('2023-04-05T00:00:00.000Z').valueOf();
sats=[{"OBJECT_ID":"2022-104X","ECCENTRICITY":"0.00007890","CENTER_NAME":"EARTH","EPOCH":"2023-04-04T20:59:55.566816","SEMIMAJOR_AXIS":"6917.843","MEAN_MOTION_DDOT":"0.0000000000000","NORAD_CAT_ID":"53609","COUNTRY_CODE":"US","OBJECT_TYPE":"PAYLOAD","ELEMENT_SET_NO":"999","SITE":"AFETR","RCS_SIZE":"LARGE","REF_FRAME":"TEME","LAUNCH_DATE":"2022-08-28","PERIOD":"95.437","TLE_LINE1":"1 53609U 22104X   23094.87494869  .00025430  00000-0  16096-2 0  9993","DECAY_DATE":null,"EPHEMERIS_TYPE":"0","REV_AT_EPOCH":"3349","CLASSIFICATION_TYPE":"U","INCLINATION":"53.2180","MEAN_ELEMENT_THEORY":"SGP4","TLE_LINE2":"2 53609  53.2180   1.4096 0000789 130.4231 229.6830 15.08852326 33491","BSTAR":"0.00160960000000","TIME_SYSTEM":"UTC","GP_ID":"229471441","MEAN_MOTION_DOT":"0.00025430","RA_OF_ASC_NODE":"1.4096","FILE":"3880112","MEAN_ANOMALY":"229.6830","ARG_OF_PERICENTER":"130.4231","MEAN_MOTION":"15.08852326","PERIAPSIS":"539.162","OBJECT_NAME":"STARLINK-4660","APOAPSIS":"540.254"},{"APOAPSIS":"540.636","OBJECT_NAME":"STARLINK-4610","PERIAPSIS":"538.872","MEAN_MOTION":"15.08837124","MEAN_ANOMALY":"240.2894","ARG_OF_PERICENTER":"119.8225","FILE":"3880211","RA_OF_ASC_NODE":"356.6487","MEAN_MOTION_DOT":"0.00005899","TIME_SYSTEM":"UTC","GP_ID":"229497487","BSTAR":"0.00038845000000","MEAN_ELEMENT_THEORY":"SGP4","TLE_LINE2":"2 53610  53.2175 356.6487 0001275 119.8225 240.2894 15.08837124 34131","CLASSIFICATION_TYPE":"U","INCLINATION":"53.2175","EPHEMERIS_TYPE":"0","REV_AT_EPOCH":"3413","DECAY_DATE":null,"TLE_LINE1":"1 53610U 22104Y   23094.91504416  .00005899  00000-0  38845-3 0  9994","PERIOD":"95.438","LAUNCH_DATE":"2022-08-28","REF_FRAME":"TEME","RCS_SIZE":"LARGE","SITE":"AFETR","ELEMENT_SET_NO":"999","OBJECT_TYPE":"PAYLOAD","COUNTRY_CODE":"US","NORAD_CAT_ID":"53610","MEAN_MOTION_DDOT":"0.0000000000000","SEMIMAJOR_AXIS":"6917.889","EPOCH":"2023-04-04T21:57:39.815424","CENTER_NAME":"EARTH","ECCENTRICITY":"0.00012750","OBJECT_ID":"2022-104Y"},{"REV_AT_EPOCH":"3425","EPHEMERIS_TYPE":"0","DECAY_DATE":null,"TIME_SYSTEM":"UTC","GP_ID":"229496738","BSTAR":"0.00014797000000","MEAN_ELEMENT_THEORY":"SGP4","TLE_LINE2":"2 53611  53.2167 356.7167 0001269  72.6495 287.4636 15.08841864 34253","INCLINATION":"53.2167","CLASSIFICATION_TYPE":"U","MEAN_ANOMALY":"287.4636","ARG_OF_PERICENTER":"72.6495","FILE":"3880211","RA_OF_ASC_NODE":"356.7167","MEAN_MOTION_DOT":"0.00002068","APOAPSIS":"540.618","PERIAPSIS":"538.862","OBJECT_NAME":"STARLINK-4650","MEAN_MOTION":"15.08841864","OBJECT_ID":"2022-104Z","NORAD_CAT_ID":"53611","MEAN_MOTION_DDOT":"0.0000000000000","SEMIMAJOR_AXIS":"6917.875","EPOCH":"2023-04-04T22:12:12.219552","CENTER_NAME":"EARTH","ECCENTRICITY":"0.00012690","SITE":"AFETR","ELEMENT_SET_NO":"999","OBJECT_TYPE":"PAYLOAD","COUNTRY_CODE":"US","TLE_LINE1":"1 53611U 22104Z   23094.92514143  .00002068  00000-0  14797-3 0  9999","PERIOD":"95.437","LAUNCH_DATE":"2022-08-28","REF_FRAME":"TEME","RCS_SIZE":"LARGE"},{"ECCENTRICITY":"0.00010480","EPOCH":"2023-04-04T21:50:58.609248","CENTER_NAME":"EARTH","SEMIMAJOR_AXIS":"6917.890","MEAN_MOTION_DDOT":"0.0000000000000","NORAD_CAT_ID":"53612","OBJECT_ID":"2022-104AA","RCS_SIZE":"LARGE","REF_FRAME":"TEME","LAUNCH_DATE":"2022-08-28","PERIOD":"95.438","TLE_LINE1":"1 53612U 22104AA  23094.91040057  .00000861  00000-0  72200-4 0  9990","COUNTRY_CODE":"US","OBJECT_TYPE":"PAYLOAD","ELEMENT_SET_NO":"999","SITE":"AFETR","CLASSIFICATION_TYPE":"U","INCLINATION":"53.2184","TLE_LINE2":"2 53612  53.2184 356.6192 0001048  91.3911 268.7202 15.08836852 34135","MEAN_ELEMENT_THEORY":"SGP4","BSTAR":"0.00007220000000","TIME_SYSTEM":"UTC","GP_ID":"229497489","DECAY_DATE":null,"EPHEMERIS_TYPE":"0","REV_AT_EPOCH":"3413","MEAN_MOTION":"15.08836852","PERIAPSIS":"539.030","OBJECT_NAME":"STARLINK-4658","APOAPSIS":"540.480","MEAN_MOTION_DOT":"0.00000861","RA_OF_ASC_NODE":"356.6192","FILE":"3880211","ARG_OF_PERICENTER":"91.3911","MEAN_ANOMALY":"268.7202"},{"CENTER_NAME":"EARTH","EPOCH":"2023-04-04T22:01:36.782976","ECCENTRICITY":"0.00010460","MEAN_MOTION_DDOT":"0.0000000000000","SEMIMAJOR_AXIS":"6917.958","NORAD_CAT_ID":"53613","OBJECT_ID":"2022-104AB","REF_FRAME":"TEME","RCS_SIZE":"LARGE","LAUNCH_DATE":"2022-08-28","TLE_LINE1":"1 53613U 22104AB  23094.91778684 -.00005834  00000-0 -34899-3 0  9993","PERIOD":"95.439","COUNTRY_CODE":"US","ELEMENT_SET_NO":"999","OBJECT_TYPE":"PAYLOAD","SITE":"AFETR","INCLINATION":"53.2184","CLASSIFICATION_TYPE":"U","MEAN_ELEMENT_THEORY":"SGP4","TLE_LINE2":"2 53613  53.2184 356.6689 0001046  93.9284 266.1827 15.08814508 34135","BSTAR":"-0.00034899000000","GP_ID":"229497239","TIME_SYSTEM":"UTC","DECAY_DATE":null,"REV_AT_EPOCH":"3413","EPHEMERIS_TYPE":"0","MEAN_MOTION":"15.08814508","PERIAPSIS":"539.100","OBJECT_NAME":"STARLINK-4655","APOAPSIS":"540.547","RA_OF_ASC_NODE":"356.6689","MEAN_MOTION_DOT":"-0.00005834","FILE":"3880211","MEAN_ANOMALY":"266.1827","ARG_OF_PERICENTER":"93.9284"},{"RCS_SIZE":"LARGE","REF_FRAME":"TEME","LAUNCH_DATE":"2022-08-28","PERIOD":"95.438","TLE_LINE1":"1 53616U 22104AE  23094.91962416 -.00000575  00000-0 -18041-4 0  9993","COUNTRY_CODE":"US","OBJECT_TYPE":"PAYLOAD","ELEMENT_SET_NO":"999","SITE":"AFETR","ECCENTRICITY":"0.00010760","EPOCH":"2023-04-04T22:04:15.527424","CENTER_NAME":"EARTH","SEMIMAJOR_AXIS":"6917.883","MEAN_MOTION_DDOT":"0.0000000000000","NORAD_CAT_ID":"53616","OBJECT_ID":"2022-104AE","MEAN_MOTION":"15.08839270","OBJECT_NAME":"STARLINK-4605","PERIAPSIS":"539.003","APOAPSIS":"540.492","MEAN_MOTION_DOT":"-0.00000575","RA_OF_ASC_NODE":"346.5059","FILE":"3880211","ARG_OF_PERICENTER":"89.4376","MEAN_ANOMALY":"270.6739","CLASSIFICATION_TYPE":"U","INCLINATION":"53.2166","MEAN_ELEMENT_THEORY":"SGP4","TLE_LINE2":"2 53616  53.2166 346.5059 0001076  89.4376 270.6739 15.08839270 34384","BSTAR":"-0.00001804100000","TIME_SYSTEM":"UTC","GP_ID":"229497988","DECAY_DATE":null,"EPHEMERIS_TYPE":"0","REV_AT_EPOCH":"3438"},{"TIME_SYSTEM":"UTC","GP_ID":"229496239","BSTAR":"0.00029992000000","TLE_LINE2":"2 53617  53.2171 356.5991 0001318  94.4833 265.6310 15.08789355 34130","MEAN_ELEMENT_THEORY":"SGP4","CLASSIFICATION_TYPE":"U","INCLINATION":"53.2171","REV_AT_EPOCH":"3413","EPHEMERIS_TYPE":"0","DECAY_DATE":null,"APOAPSIS":"540.812","OBJECT_NAME":"STARLINK-4601","PERIAPSIS":"538.988","MEAN_MOTION":"15.08789355","MEAN_ANOMALY":"265.6310","ARG_OF_PERICENTER":"94.4833","FILE":"3880211","RA_OF_ASC_NODE":"356.5991","MEAN_MOTION_DOT":"0.00004482","NORAD_CAT_ID":"53617","MEAN_MOTION_DDOT":"0.0000000000000","SEMIMAJOR_AXIS":"6918.035","CENTER_NAME":"EARTH","EPOCH":"2023-04-04T21:45:42.995232","ECCENTRICITY":"0.00013180","OBJECT_ID":"2022-104AF","TLE_LINE1":"1 53617U 22104AF  23094.90674763  .00004482  00000-0  29992-3 0  9993","PERIOD":"95.441","LAUNCH_DATE":"2022-08-28","REF_FRAME":"TEME","RCS_SIZE":"LARGE","SITE":"AFETR","ELEMENT_SET_NO":"999","OBJECT_TYPE":"PAYLOAD","COUNTRY_CODE":"US"},{"MEAN_MOTION":"15.08839579","APOAPSIS":"540.490","OBJECT_NAME":"STARLINK-4604","PERIAPSIS":"539.004","MEAN_MOTION_DOT":"-0.00001109","RA_OF_ASC_NODE":"356.5320","MEAN_ANOMALY":"256.2400","ARG_OF_PERICENTER":"103.8712","FILE":"3880211","MEAN_ELEMENT_THEORY":"SGP4","TLE_LINE2":"2 53618  53.2167 356.5320 0001074 103.8712 256.2400 15.08839579 33557","CLASSIFICATION_TYPE":"U","INCLINATION":"53.2167","TIME_SYSTEM":"UTC","GP_ID":"229496989","BSTAR":"-0.00005159000000","DECAY_DATE":null,"EPHEMERIS_TYPE":"0","REV_AT_EPOCH":"3355","LAUNCH_DATE":"2022-08-28","RCS_SIZE":"LARGE","REF_FRAME":"TEME","PERIOD":"95.438","TLE_LINE1":"1 53618U 22104AG  23094.89565866 -.00001109  00000-0 -51590-4 0  9990","COUNTRY_CODE":"US","SITE":"AFETR","OBJECT_TYPE":"PAYLOAD","ELEMENT_SET_NO":"999","SEMIMAJOR_AXIS":"6917.882","MEAN_MOTION_DDOT":"0.0000000000000","ECCENTRICITY":"0.00010740","EPOCH":"2023-04-04T21:29:44.908224","CENTER_NAME":"EARTH","NORAD_CAT_ID":"53618","OBJECT_ID":"2022-104AG"},{"EPHEMERIS_TYPE":"0","REV_AT_EPOCH":"3413","DECAY_DATE":null,"GP_ID":"229497740","TIME_SYSTEM":"UTC","BSTAR":"0.00006780600000","MEAN_ELEMENT_THEORY":"SGP4","TLE_LINE2":"2 53619  53.2187 356.5743 0001072 126.9974 233.1116 15.08838718 34130","CLASSIFICATION_TYPE":"U","INCLINATION":"53.2187","ARG_OF_PERICENTER":"126.9974","MEAN_ANOMALY":"233.1116","FILE":"3880211","RA_OF_ASC_NODE":"356.5743","MEAN_MOTION_DOT":"0.00000791","APOAPSIS":"540.491","OBJECT_NAME":"STARLINK-4609","PERIAPSIS":"539.008","MEAN_MOTION":"15.08838718","OBJECT_ID":"2022-104AH","NORAD_CAT_ID":"53619","MEAN_MOTION_DDOT":"0.0000000000000","SEMIMAJOR_AXIS":"6917.884","CENTER_NAME":"EARTH","EPOCH":"2023-04-04T21:40:21.562176","ECCENTRICITY":"0.00010720","SITE":"AFETR","ELEMENT_SET_NO":"999","OBJECT_TYPE":"PAYLOAD","COUNTRY_CODE":"US","TLE_LINE1":"1 53619U 22104AH  23094.90302734  .00000791  00000-0  67806-4 0  9997","PERIOD":"95.438","LAUNCH_DATE":"2022-08-28","REF_FRAME":"TEME","RCS_SIZE":"LARGE"},{"PERIOD":"95.437","TLE_LINE1":"1 53620U 22104AJ  23094.88829013  .00002627  00000-0  18305-3 0  9999","RCS_SIZE":"LARGE","REF_FRAME":"TEME","LAUNCH_DATE":"2022-08-28","OBJECT_TYPE":"PAYLOAD","ELEMENT_SET_NO":"999","SITE":"AFETR","COUNTRY_CODE":"US","NORAD_CAT_ID":"53620","ECCENTRICITY":"0.00014310","CENTER_NAME":"EARTH","EPOCH":"2023-04-04T21:19:08.267232","SEMIMAJOR_AXIS":"6917.874","MEAN_MOTION_DDOT":"0.0000000000000","OBJECT_ID":"2022-104AJ","OBJECT_NAME":"STARLINK-4615","PERIAPSIS":"538.749","APOAPSIS":"540.728","MEAN_MOTION":"15.08842253","FILE":"3880211","MEAN_ANOMALY":"240.6174","ARG_OF_PERICENTER":"119.4961","MEAN_MOTION_DOT":"0.00002627","RA_OF_ASC_NODE":"356.4851","BSTAR":"0.00018305000000","TIME_SYSTEM":"UTC","GP_ID":"229497488","INCLINATION":"53.2170","CLASSIFICATION_TYPE":"U","MEAN_ELEMENT_THEORY":"SGP4","TLE_LINE2":"2 53620  53.2170 356.4851 0001431 119.4961 240.6174 15.08842253 34243","REV_AT_EPOCH":"3424","EPHEMERIS_TYPE":"0","DECAY_DATE":null}];
